{
    "links": {
        "self": "http://www.neowsapp.com/rest/v1/neo/3774098?api_key=iIulBulltgU6a56xZRHN4H3l9WmuAYTsLGpBGhQ2"
    },
    "id": "3774098",
    "neo_reference_id": "3774098",
    "name": "(2017 HR3)",
    "designation": "2017 HR3",
    "nasa_jpl_url": "http://ssd.jpl.nasa.gov/sbdb.cgi?sstr=3774098",
    "absolute_magnitude_h": 23.9,
    "estimated_diameter": {
        "kilometers": {
            "estimated_diameter_min": 0.04411182,
            "estimated_diameter_max": 0.0986370281
        },
        "meters": {
            "estimated_diameter_min": 44.1118199997,
            "estimated_diameter_max": 98.6370281305
        },
        "miles": {
            "estimated_diameter_min": 0.0274098057,
            "estimated_diameter_max": 0.0612901888
        },
        "feet": {
            "estimated_diameter_min": 144.7238235278,
            "estimated_diameter_max": 323.6123073718
        }
    },
    "is_potentially_hazardous_asteroid": false,
    "close_approach_data": [
        {
            "close_approach_date": "2017-04-10",
            "close_approach_date_full": "2017-Apr-10 18:00",
            "epoch_date_close_approach": 1491847200000,
            "relative_velocity": {
                "kilometers_per_second": "10.5993407773",
                "kilometers_per_hour": "38157.6267984269",
                "miles_per_hour": "23709.6653848336"
            },
            "miss_distance": {
                "astronomical": "0.1055595116",
                "lunar": "41.0626500124",
                "kilometers": "15791478.093600292",
                "miles": "9812369.4817443496"
            },
            "orbiting_body": "Earth"
        }
    ],
    "orbital_data": {
        "orbit_id": "3",
        "orbit_determination_date": "2017-09-02 06:19:08",
        "first_observation_date": "2017-04-22",
        "last_observation_date": "2017-05-07",
        "data_arc_in_days": 15,
        "observations_used": 32,
        "orbit_uncertainty": "8",
        "minimum_orbit_intersection": ".0900414",
        "jupiter_tisserand_invariant": "4.767",
        "epoch_osculation": "2457868.5",
        "eccentricity": ".2011259026966727",
        "semi_major_axis": "1.360460804528228",
        "inclination": "19.85892987756599",
        "ascending_node_longitude": "202.631060517943",
        "orbital_period": "579.5988004733931",
        "perihelion_distance": "1.086836897134047",
        "perihelion_argument": "345.1720611886145",
        "aphelion_distance": "1.63408471192241",
        "perihelion_time": "2457837.499301560651",
        "mean_anomaly": "19.25513204832445",
        "mean_motion": ".6211192978763351",
        "equinox": "J2000",
        "orbit_class": {
            "orbit_class_type": "AMO",
            "orbit_class_description": "Near-Earth asteroid orbits similar to that of 1221 Amor",
            "orbit_class_range": "1.017 AU < q (perihelion) < 1.3 AU"
        }
    },
    "is_sentry_object": false
}